[{"OBJECT_NAME":"STARLINK-30829","OBJECT_ID":"2023-166J","EPOCH":"2026-03-09T16:14:04.895520","MEAN_MOTION":15.30237339,"ECCENTRICITY":0.0001359,"INCLINATION":53.1604,"RA_OF_ASC_NODE":219.9289,"ARG_OF_PERICENTER":111.1626,"MEAN_ANOMALY":248.952,"EPHEMERIS_TYPE":0,"CLASSIFICATION_TYPE":"U","NORAD_CAT_ID":58158,"ELEMENT_SET_NO":999,"REV_AT_EPOCH":13317,"BSTAR":0.00025313755,"MEAN_MOTION_DOT":7.154e-5,"MEAN_MOTION_DDOT":0},{"OBJECT_NAME":"KUIPER-00175","OBJECT_ID":"2025-301C","EPOCH":"2026-03-09T23:30:37.840032","MEAN_MOTION":15.30996371,"ECCENTRICITY":0.00022792,"INCLINATION":51.8781,"RA_OF_ASC_NODE":63.6978,"ARG_OF_PERICENTER":50.5695,"MEAN_ANOMALY":309.549,"EPHEMERIS_TYPE":0,"CLASSIFICATION_TYPE":"U","NORAD_CAT_ID":67135,"ELEMENT_SET_NO":999,"REV_AT_EPOCH":1385,"BSTAR":0.00066732304,"MEAN_MOTION_DOT":0.00019968,"MEAN_MOTION_DDOT":0}]
